SL-4 R/B                
1 39679U 14021B   26031.67011616  .00011442  00000+0  26422-3 0  9992
2 39679  51.6067 157.7063 0098977 327.9745  31.5247 15.38020293650575
ALOS-2                  
1 39766U 14029A   26031.92662442 -.00000015  00000+0  49316-5 0  9998
2 39766  97.9225 131.0524 0001440  98.4859 261.6516 14.79466453631438
YAOGAN-29               
1 41038U 15069A   26031.95414744  .00000471  00000+0  64679-4 0  9994
2 41038  98.0184  60.2794 0002838  98.8735 261.2800 14.82950611550430
ASTRO-H (HITOMI)        
1 41337U 16012A   26031.87763397  .00002911  00000+0  17025-3 0  9990
2 41337  30.9981 234.0565 0009931 322.6255  37.3692 15.09729014546667
HXMT (HUIYAN)           
1 42758U 17034A   26031.97666326  .00004333  00000+0  22464-3 0  9991
2 42758  43.0121 220.7064 0031946   0.1506 359.9347 15.16969122476969
CZ-2C R/B               
1 43521U 18054D   26031.74155439  .00239662  21883-4  71720-3 0  9997
2 43521  35.1284 198.2834 0013494 304.0164  55.9293 15.91118194422971
SAOCOM 1A               
1 43641U 18076A   26031.96721741  .00001095  00000+0  14414-3 0  9990
2 43641  97.8863 220.6612 0001405  86.0906 274.0468 14.82150203395924
H-2A R/B                
1 43682U 18084L   26031.51396483  .00017947  00000+0  45145-3 0  9994
2 43682  98.8760 241.0023 0026119 150.8451 209.4254 15.39680951400050
SAOCOM 1B               
1 46265U 20059A   26031.99849163  .00000831  00000+0  11090-3 0  9995
2 46265  97.8857 219.7905 0001335  86.1795 273.9571 14.82154344293318
CSS (TIANHE)            
1 48274U 21035A   26031.38642198  .00028253  00000+0  32371-3 0  9997
2 48274  41.4674  74.8264 0008909  46.9753 313.1831 15.61427822271787
COSMOS 2550             
1 48865U 21056A   26026.13240542 -.00000181  00000+0  32270-6 0  9992
2 48865  67.1441 169.6578 0008309 269.8947  90.1255 15.33840202256938
CZ-2C R/B               
1 52794U 22058K   26031.70545425  .00026232  00000+0  42310-3 0  9995
2 52794  50.1890 148.1583 0042572  44.0934 316.3417 15.51653650204385
